NORAD_CAT_ID,OBJECT_NAME,OBJECT_TYPE,EPOCH,MEAN_MOTION,ECCENTRICITY,INCLINATION,RA_OF_ASC_NODE,ARG_OF_PERICENTER,MEAN_ANOMALY,BSTAR,MEAN_MOTION_DOT,MEAN_MOTION_DDOT,TLE_LINE0,TLE_LINE1,TLE_LINE2,SEMIMAJOR_AXIS,PERIOD,APOGEE,PERIGEE,DECAYED
53262.0,STARLINK-4085,PAYLOAD,2023-08-24 18:51:14,15.08840537,9.65e-05,53.2181,39.6405,87.4365,272.6737,3.8727e-05,3.29e-06,0.0,0 STARLINK-4085,1 53262U 22086W   23236.78558194  .00000329  00000-0  38727-4 0  9994,2 53262  53.2181  39.6405 0000965  87.4365 272.6737 15.08840537 60988,6917.879,95.438,540.411,539.076,0.0
53262.0,STARLINK-4085,PAYLOAD,2023-08-25 13:55:52,15.08843708,0.0001106,53.219,36.0722,84.0689,276.0429,-1.5275e-05,-5.31e-06,0.0,0 STARLINK-4085,1 53262U 22086W   23237.58046529 -.00000531  00000-0 -15275-4 0  9997,2 53262  53.2190  36.0722 0001106  84.0689 276.0429 15.08843708 61105,6917.869,95.437,540.499,538.969,0.0
53262.0,STARLINK-4085,PAYLOAD,2023-08-25 20:17:24,15.08843582,0.0001328,53.218,34.8824,86.6047,273.5097,6.8022e-05,7.95e-06,0.0,0 STARLINK-4085,1 53262U 22086W   23237.84542230  .00000795  00000-0  68022-4 0  9994,2 53262  53.2180  34.8824 0001328  86.6047 273.5097 15.08843582 60961,6917.869,95.437,540.653,538.816,0.0
53262.0,STARLINK-4085,PAYLOAD,2023-08-26 16:57:25,15.08837473,0.0001368,53.219,31.0151,91.5038,268.611,5.7293e-05,6.24e-06,0.0,0 STARLINK-4085,1 53262U 22086W   23238.70654718  .00000624  00000-0  57293-4 0  9994,2 53262  53.2190  31.0151 0001368  91.5038 268.6110 15.08837473 61091,6917.888,95.438,540.699,538.807,0.0
53262.0,STARLINK-4085,PAYLOAD,2023-08-26 20:08:11,15.08838821,0.0001384,53.2193,30.4201,95.9377,264.1773,6.4112e-05,7.33e-06,0.0,0 STARLINK-4085,1 53262U 22086W   23238.83902608  .00000733  00000-0  64112-4 0  9991,2 53262  53.2193  30.4201 0001384  95.9377 264.1773 15.08838821 61291,6917.884,95.438,540.706,538.792,0.0
53262.0,STARLINK-4085,PAYLOAD,2023-08-27 10:26:40,15.0883815,0.0001382,53.2194,27.7437,98.6193,261.4956,3.5831e-05,2.82e-06,0.0,0 STARLINK-4085,1 53262U 22086W   23239.43518826  .00000282  00000-0  35831-4 0  9998,2 53262  53.2194  27.7437 0001382  98.6193 261.4956 15.08838150 61384,6917.886,95.438,540.707,538.795,0.0
53262.0,STARLINK-4085,PAYLOAD,2023-08-27 18:23:35,15.08840737,0.0001297,53.2191,26.2571,101.7018,258.412,3.9699e-05,3.44e-06,0.0,0 STARLINK-4085,1 53262U 22086W   23239.76638601  .00000344  00000-0  39699-4 0  9993,2 53262  53.2191  26.2571 0001297 101.7018 258.4120 15.08840737 61430,6917.878,95.438,540.64,538.846,0.0
53262.0,STARLINK-4085,PAYLOAD,2023-08-28 02:20:31,15.08843236,0.0001261,53.219,24.7703,100.9017,259.2117,2.8274e-05,1.62e-06,0.0,0 STARLINK-4085,1 53262U 22086W   23240.09758446  .00000162  00000-0  28274-4 0  9996,2 53262  53.2190  24.7703 0001261 100.9017 259.2117 15.08843236 61308,6917.87,95.437,540.608,538.863,0.0
53262.0,STARLINK-4085,PAYLOAD,2023-08-28 16:39:00,15.08838953,0.0001383,53.219,22.1012,84.6276,275.4874,-2.5233e-05,-6.89e-06,0.0,0 STARLINK-4085,1 53262U 22086W   23240.69375275 -.00000689  00000-0 -25233-4 0  9995,2 53262  53.2190  22.1012 0001383  84.6276 275.4874 15.08838953 61392,6917.884,95.438,540.705,538.792,0.0
53262.0,STARLINK-4085,PAYLOAD,2023-08-28 21:25:09,15.08844304,0.0001223,53.2184,21.2058,92.3596,267.7536,2.8609e-05,1.68e-06,0.0,0 STARLINK-4085,1 53262U 22086W   23240.89246612  .00000168  00000-0  28609-4 0  9999,2 53262  53.2184  21.2058 0001223  92.3596 267.7536 15.08844304 61429,6917.867,95.437,540.578,538.886,0.0
53262.0,STARLINK-4085,PAYLOAD,2023-08-29 10:08:14,15.08834424,0.0001181,53.2184,18.8258,88.0227,272.0901,5.1388e-06,-2.06e-06,0.0,0 STARLINK-4085,1 53262U 22086W   23241.42239501 -.00000206  00000-0  51388-5 0  9993,2 53262  53.2184  18.8258 0001181  88.0227 272.0901 15.08834424 61505,6917.897,95.438,540.579,538.945,0.0
53262.0,STARLINK-4085,PAYLOAD,2023-08-29 16:29:47,15.08840675,0.0001246,53.2188,17.6365,90.5985,269.515,5.4901e-05,5.86e-06,0.0,0 STARLINK-4085,1 53262U 22086W   23241.68735006  .00000586  00000-0  54901-4 0  9995,2 53262  53.2188  17.6365 0001246  90.5985 269.5150 15.08840675 61542,6917.878,95.438,540.605,538.881,0.0
53262.0,STARLINK-4085,PAYLOAD,2023-08-29 19:40:32,15.08846283,0.0001207,53.2187,17.0417,85.0916,275.0214,9.8151e-05,1.275e-05,0.0,0 STARLINK-4085,1 53262U 22086W   23241.81982520  .00001275  00000-0  98151-4 0  9996,2 53262  53.2187  17.0417 0001207  85.0916 275.0214 15.08846283 61749,6917.861,95.437,540.561,538.891,0.0
53262.0,STARLINK-4085,PAYLOAD,2023-08-30 08:23:38,15.08833636,0.0001327,53.2195,14.665,77.7492,282.3649,6.027e-05,6.71e-06,0.0,0 STARLINK-4085,1 53262U 22086W   23242.34975506  .00000671  00000-0  60270-4 0  9991,2 53262  53.2195  14.6650 0001327  77.7492 282.3649 15.08833636 61640,6917.9,95.438,540.683,538.847,0.0
53262.0,STARLINK-4085,PAYLOAD,2023-08-30 16:20:33,15.0884627,0.000123,53.2185,13.1767,83.5718,276.5415,7.0488e-05,8.34e-06,0.0,0 STARLINK-4085,1 53262U 22086W   23242.68094746  .00000834  00000-0  70488-4 0  9999,2 53262  53.2185  13.1767 0001230  83.5718 276.5415 15.08846270 61690,6917.861,95.437,540.577,538.875,0.0
53262.0,STARLINK-4085,PAYLOAD,2023-08-31 01:52:53,15.08833157,2.52e-05,53.2194,11.3951,125.3811,234.7204,-2.025e-05,-6.1e-06,0.0,0 STARLINK-4085,1 53262U 22086W   23243.07839312 -.00000610  00000-0 -20250-4 0  9995,2 53262  53.2194  11.3951 0000252 125.3811 234.7204 15.08833157 61756,6917.901,95.438,539.941,539.592,0.0
53262.0,STARLINK-4085,PAYLOAD,2023-09-01 01:43:39,15.08846208,6.16e-05,53.2191,6.9338,272.7688,87.3234,9.0102e-06,-1.44e-06,0.0,0 STARLINK-4085,1 53262U 22086W   23244.07198041 -.00000144  00000-0  90102-5 0  9998,2 53262  53.2191   6.9338 0000616 272.7688  87.3234 15.08846208 61908,6917.861,95.437,540.153,539.3,0.0
53262.0,STARLINK-4085,PAYLOAD,2023-09-01 11:15:59,15.08832999,7.74e-05,53.2191,5.148,92.1529,267.9552,8.0199e-05,9.89e-06,0.0,0 STARLINK-4085,1 53262U 22086W   23244.46943365  .00000989  00000-0  80199-4 0  9998,2 53262  53.2191   5.1480 0000774  92.1529 267.9552 15.08832999 61967,6917.902,95.438,540.302,539.231,0.0
53262.0,STARLINK-4085,PAYLOAD,2023-09-01 14:26:44,15.08847347,0.0001427,53.2169,4.554,89.2071,270.9085,0.00010062,1.314e-05,0.0,0 STARLINK-4085,1 53262U 22086W   23244.60190503  .00001314  00000-0  10062-3 0  9996,2 53262  53.2169   4.5540 0001427  89.2071 270.9085 15.08847347 62168,6917.858,95.437,540.71,538.736,0.0
53262.0,STARLINK-4085,PAYLOAD,2023-09-01 17:37:30,15.08850936,0.0001294,53.2166,3.9564,92.9345,267.1795,6.4394e-05,7.37e-06,0.0,0 STARLINK-4085,1 53262U 22086W   23244.73438309  .00000737  00000-0  64394-4 0  9995,2 53262  53.2166   3.9564 0001294  92.9345 267.1795 15.08850936 62008,6917.847,95.437,540.607,538.817,0.0
53262.0,STARLINK-4085,PAYLOAD,2023-09-02 12:42:08,15.08839575,5.88e-05,53.2221,0.3909,82.3571,277.7487,3.7738e-05,3.13e-06,0.0,0 STARLINK-4085,1 53262U 22086W   23245.52926790  .00000313  00000-0  37738-4 0  9991,2 53262  53.2221   0.3909 0000588  82.3571 277.7487 15.08839575 62307,6917.882,95.438,540.153,539.34,0.0
53262.0,STARLINK-4085,PAYLOAD,2023-09-02 14:17:31,15.08834453,6.71e-05,53.2212,0.0932,88.9317,271.1752,0.0001117,1.49e-05,0.0,0 STARLINK-4085,1 53262U 22086W   23245.59550779  .00001490  00000-0  11170-3 0  9996,2 53262  53.2212   0.0932 0000671  88.9317 271.1752 15.08834453 62137,6917.897,95.438,540.227,539.298,0.0
53262.0,STARLINK-4085,PAYLOAD,2023-09-02 19:03:40,15.08848031,0.0001114,53.2204,359.1992,93.9327,266.1792,0.0002152,3.139e-05,0.0,0 STARLINK-4085,1 53262U 22086W   23245.79421920  .00003139  00000-0  21520-3 0  9995,2 53262  53.2204 359.1992 0001114  93.9327 266.1792 15.08848031 62340,6917.856,95.437,540.491,538.95,0.0
53262.0,STARLINK-4085,PAYLOAD,2023-09-03 07:46:46,15.08839417,0.000137,53.2181,356.8224,92.4908,267.6241,0.00011697,1.574e-05,0.0,0 STARLINK-4085,1 53262U 22086W   23246.32414865  .00001574  00000-0  11697-3 0  9990,2 53262  53.2181 356.8224 0001370  92.4908 267.6241 15.08839417 62241,6917.882,95.438,540.695,538.799,0.0
53262.0,STARLINK-4085,PAYLOAD,2023-09-03 14:08:18,15.08853144,0.0001876,53.2164,355.6309,97.717,262.4035,0.00013791,1.908e-05,0.0,0 STARLINK-4085,1 53262U 22086W   23246.58909876  .00001908  00000-0  13791-3 0  9997,2 53262  53.2164 355.6309 0001876  97.7170 262.4035 15.08853144 62464,6917.84,95.437,541.003,538.407,0.0
53262.0,STARLINK-4085,PAYLOAD,2023-09-04 07:37:34,15.08838028,8.51e-05,53.2184,352.3631,77.6139,282.4949,-6.9779e-05,-1.398e-05,0.0,0 STARLINK-4085,1 53262U 22086W   23247.31775693 -.00001398  00000-0 -69779-4 0  9990,2 53262  53.2184 352.3631 0000851  77.6139 282.4949 15.08838028 62394,6917.886,95.438,540.34,539.163,0.0
53262.0,STARLINK-4085,PAYLOAD,2023-09-04 13:59:06,15.08835316,0.0001106,53.2188,351.1729,96.4383,263.6735,-8.5918e-05,-1.655e-05,0.0,0 STARLINK-4085,1 53262U 22086W   23247.58271868 -.00001655  00000-0 -85918-4 0  9993,2 53262  53.2188 351.1729 0001106  96.4383 263.6735 15.08835316 62613,6917.895,95.438,540.525,538.995,0.0
53262.0,STARLINK-4085,PAYLOAD,2023-09-05 05:52:58,15.08832432,0.0001381,53.2181,348.1989,104.8395,255.2751,5.0037e-05,5.08e-06,0.0,0 STARLINK-4085,1 53262U 22086W   23248.24512018  .00000508  00000-0  50037-4 0  9990,2 53262  53.2181 348.1989 0001381 104.8395 255.2751 15.08832432 62714,6917.904,95.438,540.724,538.813,0.0
53262.0,STARLINK-4085,PAYLOAD,2023-09-05 23:22:12,15.08848008,0.0001348,53.2185,344.9284,99.6249,260.4896,3.466e-06,-2.33e-06,0.0,0 STARLINK-4085,1 53262U 22086W   23248.97375160 -.00000233  00000-0  34660-5 0  9996,2 53262  53.2185 344.9284 0001348  99.6249 260.4896 15.08848008 62648,6917.856,95.437,540.653,538.788,0.0
53262.0,STARLINK-4085,PAYLOAD,2023-09-06 07:19:08,15.08836468,0.0001356,53.2185,343.4417,103.3341,256.7803,0.00019721,2.852e-05,0.0,0 STARLINK-4085,1 53262U 22086W   23249.30495923  .00002852  00000-0  19721-3 0  9991,2 53262  53.2185 343.4417 0001356 103.3341 256.7803 15.08836468 62693,6917.891,95.438,540.694,538.818,0.0
